ONEWEB-0233             
1 48795U 21045AE  24125.20298052 -.00000033  00000+0 -12167-3 0  9994
2 48795  87.9053  53.2586 0001743  82.1979 277.9349 13.15550817143642
ONEWEB-0190             
1 48796U 21045AF  24125.19902538 -.00000012  00000+0 -64688-4 0  9997
2 48796  87.9055  53.2226 0001886 111.9257 248.2074 13.15548927143728
ONEWEB-0236             
1 48797U 21045AG  24125.52069136 -.00000152  00000+0 -43780-3 0  9997
2 48797  87.9057  53.1511 0001972  83.5620 276.5735 13.15548365143657
ONEWEB-0248             
1 48798U 21045AH  24125.83759231 -.00000017  00000+0 -78914-4 0  9992
2 48798  87.9046  53.0823 0002432  98.4996 261.6410 13.15549407143859
ONEWEB-0215             
1 48800U 21045AK  24125.22122432  .00000184  00000+0  45429-3 0  9993
2 48800  87.9013  53.1873 0002104 105.9600 254.1763 13.15543085143657
ONEWEB-0239             
1 48802U 21045AM  24125.15942198  .00000087  00000+0  19674-3 0  9991
2 48802  87.9055  53.2160 0002502 103.0369 257.1041 13.15550081143711
